{
    "links": {
        "self": "http://www.neowsapp.com/rest/v1/neo/3549637?api_key=iIulBulltgU6a56xZRHN4H3l9WmuAYTsLGpBGhQ2"
    },
    "id": "3549637",
    "neo_reference_id": "3549637",
    "name": "(2010 UG)",
    "designation": "2010 UG",
    "nasa_jpl_url": "http://ssd.jpl.nasa.gov/sbdb.cgi?sstr=3549637",
    "absolute_magnitude_h": 25.4,
    "estimated_diameter": {
        "kilometers": {
            "estimated_diameter_min": 0.022108281,
            "estimated_diameter_max": 0.0494356193
        },
        "meters": {
            "estimated_diameter_min": 22.1082810359,
            "estimated_diameter_max": 49.435619262
        },
        "miles": {
            "estimated_diameter_min": 0.0137374447,
            "estimated_diameter_max": 0.0307178602
        },
        "feet": {
            "estimated_diameter_min": 72.5337327539,
            "estimated_diameter_max": 162.1903570994
        }
    },
    "is_potentially_hazardous_asteroid": false,
    "close_approach_data": [
        {
            "close_approach_date": "2010-10-04",
            "close_approach_date_full": "2010-Oct-04 19:50",
            "epoch_date_close_approach": 1286221800000,
            "relative_velocity": {
                "kilometers_per_second": "7.2533757985",
                "kilometers_per_hour": "26112.1528746051",
                "miles_per_hour": "16225.0763236678"
            },
            "miss_distance": {
                "astronomical": "0.0401022186",
                "lunar": "15.5997630354",
                "kilometers": "5999206.484834382",
                "miles": "3727734.0523511916"
            },
            "orbiting_body": "Earth"
        }
    ],
    "orbital_data": {
        "orbit_id": "6",
        "orbit_determination_date": "2017-04-06 08:56:12",
        "first_observation_date": "2010-10-17",
        "last_observation_date": "2010-10-18",
        "data_arc_in_days": 1,
        "observations_used": 12,
        "orbit_uncertainty": "9",
        "minimum_orbit_intersection": ".0377286",
        "jupiter_tisserand_invariant": "4.417",
        "epoch_osculation": "2455487.5",
        "eccentricity": ".3487619723798744",
        "semi_major_axis": "1.524936644024892",
        "inclination": "8.14462716906338",
        "ascending_node_longitude": "24.36272800257342",
        "orbital_period": "687.8221031413422",
        "perihelion_distance": ".9930967323004242",
        "perihelion_argument": "320.3363063241715",
        "aphelion_distance": "2.05677655574936",
        "perihelion_time": "2455450.303459190051",
        "mean_anomaly": "19.46834018625589",
        "mean_motion": ".5233911477340569",
        "equinox": "J2000",
        "orbit_class": {
            "orbit_class_type": "APO",
            "orbit_class_description": "Near-Earth asteroid orbits which cross the Earth’s orbit similar to that of 1862 Apollo",
            "orbit_class_range": "a (semi-major axis) > 1.0 AU; q (perihelion) < 1.017 AU"
        }
    },
    "is_sentry_object": false
}